[{"OBJECT_NAME":"HULIANWANG DIGUI-80","OBJECT_ID":"2025-187H","EPOCH":"2026-03-09T21:48:31.066560","MEAN_MOTION":13.29341563,"ECCENTRICITY":0.00010367,"INCLINATION":50.0021,"RA_OF_ASC_NODE":201.9725,"ARG_OF_PERICENTER":153.3198,"MEAN_ANOMALY":206.7727,"EPHEMERIS_TYPE":0,"CLASSIFICATION_TYPE":"U","NORAD_CAT_ID":65312,"ELEMENT_SET_NO":999,"REV_AT_EPOCH":2649,"BSTAR":8.5166282e-5,"MEAN_MOTION_DOT":-8.5e-7,"MEAN_MOTION_DDOT":0},{"OBJECT_NAME":"ARIANE 1 DEB","OBJECT_ID":"1986-019VQ","EPOCH":"2026-03-09T15:29:26.823840","MEAN_MOTION":13.67576853,"ECCENTRICITY":0.0381214,"INCLINATION":98.8657,"RA_OF_ASC_NODE":214.429,"ARG_OF_PERICENTER":175.2541,"MEAN_ANOMALY":185.2389,"EPHEMERIS_TYPE":0,"CLASSIFICATION_TYPE":"U","NORAD_CAT_ID":35517,"ELEMENT_SET_NO":999,"REV_AT_EPOCH":12930,"BSTAR":0.00054602,"MEAN_MOTION_DOT":7.25e-6,"MEAN_MOTION_DDOT":0}]
